NORAD_CAT_ID,OBJECT_NAME,OBJECT_TYPE,EPOCH,MEAN_MOTION,ECCENTRICITY,INCLINATION,RA_OF_ASC_NODE,ARG_OF_PERICENTER,MEAN_ANOMALY,BSTAR,MEAN_MOTION_DOT,MEAN_MOTION_DDOT,TLE_LINE0,TLE_LINE1,TLE_LINE2,SEMIMAJOR_AXIS,PERIOD,APOGEE,PERIGEE,DECAYED
51862.0,STARLINK-3508,PAYLOAD,2023-06-14 18:11:55,15.08839598,0.000111,53.216,173.4956,79.3016,280.8101,2.8879e-05,1.72e-06,0.0,0 STARLINK-3508,1 51862U 22022L   23165.75828467  .00000172  00000-0  28879-4 0  9992,2 51862  53.2160 173.4956 0001110  79.3016 280.8101 15.08839598 72369,6917.882,95.438,540.515,538.979,0.0
51862.0,STARLINK-3508,PAYLOAD,2023-06-15 06:55:00,15.0884093,0.0001056,53.2157,171.1166,78.6876,281.4235,6.2002e-05,6.99e-06,0.0,0 STARLINK-3508,1 51862U 22022L   23166.28820196  .00000699  00000-0  62002-4 0  9992,2 51862  53.2157 171.1166 0001056  78.6876 281.4235 15.08840930 72444,6917.878,95.437,540.473,539.012,0.0
51862.0,STARLINK-3508,PAYLOAD,2023-06-16 06:45:47,15.08839618,0.0001079,53.2157,166.6562,78.2606,281.8507,1.3016e-06,-2.67e-06,0.0,0 STARLINK-3508,1 51862U 22022L   23167.28180422 -.00000267  00000-0  13016-5 0  9998,2 51862  53.2157 166.6562 0001079  78.2606 281.8507 15.08839618 72598,6917.882,95.438,540.493,539.0,0.0
51862.0,STARLINK-3508,PAYLOAD,2023-06-17 00:15:02,15.08839988,0.0001115,53.2159,163.3854,78.2113,281.9004,-4.5147e-05,-1.006e-05,0.0,0 STARLINK-3508,1 51862U 22022L   23168.01044514 -.00001006  00000-0 -45147-4 0  9993,2 51862  53.2159 163.3854 0001115  78.2113 281.9004 15.08839988 72708,6917.88,95.438,540.517,538.974,0.0
51862.0,STARLINK-3508,PAYLOAD,2023-06-17 06:36:34,15.08841557,0.0001123,53.2158,162.1959,78.2121,281.8997,-2.8612e-05,-7.43e-06,0.0,0 STARLINK-3508,1 51862U 22022L   23168.27540318 -.00000743  00000-0 -28612-4 0  9999,2 51862  53.2158 162.1959 0001123  78.2121 281.8997 15.08841557 72747,6917.876,95.437,540.518,538.964,0.0
51862.0,STARLINK-3508,PAYLOAD,2023-06-17 16:08:54,15.08834578,0.0001136,53.2157,160.4121,77.5181,282.5938,-5.2115e-05,-1.117e-05,0.0,0 STARLINK-3508,1 51862U 22022L   23168.67284860 -.00001117  00000-0 -52115-4 0  9991,2 51862  53.2157 160.4121 0001136  77.5181 282.5938 15.08834578 72805,6917.897,95.438,540.548,538.976,0.0
51862.0,STARLINK-3508,PAYLOAD,2023-06-18 00:05:50,15.08830757,0.000117,53.216,158.9258,80.1782,279.9342,-5.1382e-05,-1.105e-05,0.0,0 STARLINK-3508,1 51862U 22022L   23169.00405218 -.00001105  00000-0 -51382-4 0  9993,2 51862  53.2160 158.9258 0001170  80.1782 279.9342 15.08830757 72856,6917.909,95.438,540.583,538.964,0.0
51862.0,STARLINK-3508,PAYLOAD,2023-06-18 06:27:22,15.08831243,0.0001181,53.2161,157.7364,80.1778,279.9348,-4.4175e-05,-9.91e-06,0.0,0 STARLINK-3508,1 51862U 22022L   23169.26901285 -.00000991  00000-0 -44175-4 0  9990,2 51862  53.2161 157.7364 0001181  80.1778 279.9348 15.08831243 72890,6917.907,95.438,540.589,538.955,0.0
51862.0,STARLINK-3508,PAYLOAD,2023-06-18 15:59:41,15.08833692,0.0001183,53.2162,155.9521,79.1126,280.9999,-1.9663e-05,-6.01e-06,0.0,0 STARLINK-3508,1 51862U 22022L   23169.66645200 -.00000601  00000-0 -19663-4 0  9998,2 51862  53.2162 155.9521 0001183  79.1126 280.9999 15.08833692 72954,6917.9,95.438,540.583,538.946,0.0
51862.0,STARLINK-3508,PAYLOAD,2023-06-18 23:56:36,15.08837088,0.0001153,53.2158,154.4653,81.4675,278.6448,3.3988e-06,-2.34e-06,0.0,0 STARLINK-3508,1 51862U 22022L   23169.99764983 -.00000234  00000-0  33988-5 0  9992,2 51862  53.2158 154.4653 0001153  81.4675 278.6448 15.08837088 73004,6917.889,95.438,540.552,538.957,0.0
51862.0,STARLINK-3508,PAYLOAD,2023-06-19 15:50:28,15.08835573,0.0001167,53.2159,151.4924,86.4349,273.6776,3.3425e-05,2.44e-06,0.0,0 STARLINK-3508,1 51862U 22022L   23170.66005034  .00000244  00000-0  33425-4 0  9998,2 51862  53.2159 151.4924 0001167  86.4349 273.6776 15.08835573 73108,6917.894,95.438,540.566,538.952,0.0
51862.0,STARLINK-3508,PAYLOAD,2023-06-20 07:44:19,15.08836318,0.0001134,53.2158,148.5176,86.4112,273.701,4.624e-05,4.48e-06,0.0,0 STARLINK-3508,1 51862U 22022L   23171.32245042  .00000448  00000-0  46240-4 0  9992,2 51862  53.2158 148.5176 0001134  86.4112 273.7010 15.08836318 73206,6917.892,95.438,540.541,538.972,0.0
51862.0,STARLINK-3508,PAYLOAD,2023-06-21 07:35:06,15.088428,0.000131,53.2164,144.0554,85.9538,274.1604,1.708e-05,-1.6e-07,0.0,0 STARLINK-3508,1 51862U 22022L   23172.31604806 -.00000016  00000-0  17080-4 0  9991,2 51862  53.2164 144.0554 0001310  85.9538 274.1604 15.08842800 73359,6917.872,95.437,540.643,538.831,0.0
51862.0,STARLINK-3508,PAYLOAD,2023-06-21 15:32:02,15.08837094,0.0001391,53.2168,142.5676,85.2875,274.8276,-5.0213e-05,-1.087e-05,0.0,0 STARLINK-3508,1 51862U 22022L   23172.64725396 -.00001087  00000-0 -50213-4 0  9990,2 51862  53.2168 142.5676 0001391  85.2875 274.8276 15.08837094 73404,6917.889,95.438,540.717,538.792,0.0
51862.0,STARLINK-3508,PAYLOAD,2023-06-23 02:30:30,15.08846731,0.0001325,53.2161,136.0262,88.9128,271.2016,4.414e-05,4.15e-06,0.0,0 STARLINK-3508,1 51862U 22022L   23174.10452515  .00000415  00000-0  44140-4 0  9997,2 51862  53.2161 136.0262 0001325  88.9128 271.2016 15.08846731 73629,6917.86,95.437,540.641,538.808,0.0
51862.0,STARLINK-3508,PAYLOAD,2023-06-24 02:21:18,15.08832642,0.0001266,53.2159,131.5675,92.3609,267.7528,1.0671e-05,-1.18e-06,0.0,0 STARLINK-3508,1 51862U 22022L   23175.09813547 -.00000118  00000-0  10671-4 0  9995,2 51862  53.2159 131.5675 0001266  92.3609 267.7528 15.08832642 73771,6917.903,95.438,540.644,538.892,0.0
51862.0,STARLINK-3508,PAYLOAD,2023-06-25 03:47:29,15.08839325,0.0001263,53.2163,126.8119,93.7696,266.344,-6.0877e-05,-1.257e-05,0.0,0 STARLINK-3508,1 51862U 22022L   23176.15797594 -.00001257  00000-0 -60877-4 0  9995,2 51862  53.2163 126.8119 0001263  93.7696 266.3440 15.08839325 73935,6917.882,95.438,540.621,538.874,0.0
51862.0,STARLINK-3508,PAYLOAD,2023-06-26 05:13:38,15.08841291,0.0001195,53.2165,122.0526,93.7552,266.3577,6.2066e-05,7e-06,0.0,0 STARLINK-3508,1 51862U 22022L   23177.21781212  .00000700  00000-0  62066-4 0  9995,2 51862  53.2165 122.0526 0001195  93.7552 266.3577 15.08841291 74096,6917.876,95.437,540.568,538.915,0.0
51862.0,STARLINK-3508,PAYLOAD,2023-06-27 01:53:40,15.08831507,0.0001196,53.2161,118.1865,96.5545,263.5583,-5.9081e-05,-1.228e-05,0.0,0 STARLINK-3508,1 51862U 22022L   23178.07894655 -.00001228  00000-0 -59081-4 0  9997,2 51862  53.2161 118.1865 0001196  96.5545 263.5583 15.08831507 74228,6917.906,95.438,540.599,538.944,0.0
51862.0,STARLINK-3508,PAYLOAD,2023-06-28 03:19:50,15.08842973,0.0001241,53.2172,113.4276,94.7987,265.3147,1.5889e-05,-3.5e-07,0.0,0 STARLINK-3508,1 51862U 22022L   23179.13877969 -.00000035  00000-0  15889-4 0  9996,2 51862  53.2172 113.4276 0001241  94.7987 265.3147 15.08842973 74387,6917.871,95.437,540.595,538.878,0.0
51862.0,STARLINK-3508,PAYLOAD,2023-06-29 01:35:14,15.08836432,0.0001175,53.2166,109.2651,105.1797,254.9326,4.4605e-05,4.22e-06,0.0,0 STARLINK-3508,1 51862U 22022L   23180.06614398  .00000422  00000-0  44605-4 0  9992,2 51862  53.2166 109.2651 0001175 105.1797 254.9326 15.08836432 74524,6917.891,95.438,540.569,538.943,0.0
51862.0,STARLINK-3508,PAYLOAD,2023-07-01 01:16:49,15.08835731,0.0001274,53.2167,100.342,103.9487,256.1647,-3.5823e-05,-8.58e-06,0.0,0 STARLINK-3508,1 51862U 22022L   23182.05334616 -.00000858  00000-0 -35823-4 0  9992,2 51862  53.2167 100.3420 0001274 103.9487 256.1647 15.08835731 74827,6917.893,95.438,540.64,538.877,0.0
51862.0,STARLINK-3508,PAYLOAD,2023-07-02 10:39:55,15.08841264,0.0001263,53.2172,94.0999,92.8397,267.274,-6.805e-05,-1.371e-05,0.0,0 STARLINK-3508,1 51862U 22022L   23183.44438699 -.00001371  00000-0 -68050-4 0  9991,2 51862  53.2172  94.0999 0001263  92.8397 267.2740 15.08841264 75036,6917.877,95.437,540.615,538.868,0.0
51862.0,STARLINK-3508,PAYLOAD,2023-07-04 00:49:10,15.08831802,0.0001356,53.2179,86.9666,103.6414,256.4729,-1.538e-05,-5.33e-06,0.0,0 STARLINK-3508,1 51862U 22022L   23185.03415474 -.00000533  00000-0 -15380-4 0  9991,2 51862  53.2179  86.9666 0001356 103.6414 256.4729 15.08831802 75278,6917.905,95.438,540.709,538.832,0.0
51862.0,STARLINK-3508,PAYLOAD,2023-07-05 00:39:56,15.08865525,0.0001209,53.2178,82.5052,102.772,257.3408,-0.00022293,-3.837e-05,0.0,0 STARLINK-3508,1 51862U 22022L   23186.02774115 -.00003837  00000-0 -22293-3 0  9991,2 51862  53.2178  82.5052 0001209 102.7720 257.3408 15.08865525 75425,6917.802,95.436,540.504,538.831,0.0
51862.0,STARLINK-3508,PAYLOAD,2023-07-05 10:12:18,15.08821453,0.0001263,53.2164,80.7188,90.0079,270.1058,-0.00018884,-3.29e-05,0.0,0 STARLINK-3508,1 51862U 22022L   23186.42520986 -.00003290  00000-0 -18884-3 0  9994,2 51862  53.2164  80.7188 0001263  90.0079 270.1058 15.08821453 75488,6917.937,95.439,540.676,538.928,0.0
51862.0,STARLINK-3508,PAYLOAD,2023-07-06 02:06:09,15.08824118,0.0001137,53.2172,77.7451,88.2659,271.8463,-6.9e-05,-1.385e-05,0.0,0 STARLINK-3508,1 51862U 22022L   23187.08761131 -.00001385  00000-0 -69000-4 0  9996,2 51862  53.2172  77.7451 0001137  88.2659 271.8463 15.08824118 75589,6917.929,95.439,540.581,539.007,0.0
51862.0,STARLINK-3508,PAYLOAD,2023-07-06 10:03:04,15.08832767,0.0001157,53.2171,76.2599,92.3073,267.8052,1.0095e-05,-1.27e-06,0.0,0 STARLINK-3508,1 51862U 22022L   23187.41880570 -.00000127  00000-0  10095-4 0  9994,2 51862  53.2171  76.2599 0001157  92.3073 267.8052 15.08832767 75637,6917.902,95.438,540.568,538.967,0.0
51862.0,STARLINK-3508,PAYLOAD,2023-07-06 16:24:36,15.08842855,0.000113,53.2175,75.0693,94.1584,265.9537,-9.7498e-06,-4.43e-06,0.0,0 STARLINK-3508,1 51862U 22022L   23187.68376122 -.00000443  00000-0 -97498-5 0  9991,2 51862  53.2175  75.0693 0001130  94.1584 265.9537 15.08842855 75671,6917.872,95.437,540.518,538.955,0.0
51862.0,STARLINK-3508,PAYLOAD,2023-07-07 01:56:54,15.08853171,0.0001108,53.2172,73.2855,96.0584,264.0535,5.1812e-05,5.37e-06,0.0,0 STARLINK-3508,1 51862U 22022L   23188.08119111  .00000537  00000-0  51812-4 0  9990,2 51862  53.2172  73.2855 0001108  96.0584 264.0535 15.08853171 75732,6917.84,95.437,540.472,538.939,0.0
